{
    "links": {
        "self": "http://www.neowsapp.com/rest/v1/neo/3601340?api_key=iIulBulltgU6a56xZRHN4H3l9WmuAYTsLGpBGhQ2"
    },
    "id": "3601340",
    "neo_reference_id": "3601340",
    "name": "(2012 ES10)",
    "designation": "2012 ES10",
    "nasa_jpl_url": "http://ssd.jpl.nasa.gov/sbdb.cgi?sstr=3601340",
    "absolute_magnitude_h": 23.8,
    "estimated_diameter": {
        "kilometers": {
            "estimated_diameter_min": 0.046190746,
            "estimated_diameter_max": 0.1032856481
        },
        "meters": {
            "estimated_diameter_min": 46.1907460282,
            "estimated_diameter_max": 103.2856480504
        },
        "miles": {
            "estimated_diameter_min": 0.0287015901,
            "estimated_diameter_max": 0.0641787064
        },
        "feet": {
            "estimated_diameter_min": 151.544447199,
            "estimated_diameter_max": 338.8636855496
        }
    },
    "is_potentially_hazardous_asteroid": false,
    "close_approach_data": [
        {
            "close_approach_date": "1962-08-12",
            "close_approach_date_full": "1962-Aug-12 06:22",
            "epoch_date_close_approach": -233170680000,
            "relative_velocity": {
                "kilometers_per_second": "21.4190220018",
                "kilometers_per_hour": "77108.4792063727",
                "miles_per_hour": "47912.2103157598"
            },
            "miss_distance": {
                "astronomical": "0.1226312689",
                "lunar": "47.7035636021",
                "kilometers": "18345376.622837243",
                "miles": "11399288.4414022334"
            },
            "orbiting_body": "Earth"
        },
        {
            "close_approach_date": "2011-12-17",
            "close_approach_date_full": "2011-Dec-17 17:04",
            "epoch_date_close_approach": 1324141440000,
            "relative_velocity": {
                "kilometers_per_second": "23.6903023839",
                "kilometers_per_hour": "85285.0885818798",
                "miles_per_hour": "52992.8374024464"
            },
            "miss_distance": {
                "astronomical": "0.044314261",
                "lunar": "17.238247529",
                "kilometers": "6629319.05622407",
                "miles": "4119267.848549366"
            },
            "orbiting_body": "Venus"
        },
        {
            "close_approach_date": "2012-02-29",
            "close_approach_date_full": "2012-Feb-29 13:23",
            "epoch_date_close_approach": 1330521780000,
            "relative_velocity": {
                "kilometers_per_second": "22.147414807",
                "kilometers_per_hour": "79730.6933051435",
                "miles_per_hour": "49541.5521817432"
            },
            "miss_distance": {
                "astronomical": "0.074946447",
                "lunar": "29.154167883",
                "kilometers": "11211828.83526789",
                "miles": "6966707.387721282"
            },
            "orbiting_body": "Earth"
        },
        {
            "close_approach_date": "2058-08-10",
            "close_approach_date_full": "2058-Aug-10 12:36",
            "epoch_date_close_approach": 2796208560000,
            "relative_velocity": {
                "kilometers_per_second": "22.7638420153",
                "kilometers_per_hour": "81949.8312551462",
                "miles_per_hour": "50920.4382040657"
            },
            "miss_distance": {
                "astronomical": "0.0800683136",
                "lunar": "31.1465739904",
                "kilometers": "11978049.169052032",
                "miles": "7442814.6257487616"
            },
            "orbiting_body": "Earth"
        }
    ],
    "orbital_data": {
        "orbit_id": "10",
        "orbit_determination_date": "2019-04-18 07:27:04",
        "first_observation_date": "2012-03-15",
        "last_observation_date": "2012-03-28",
        "data_arc_in_days": 13,
        "observations_used": 36,
        "orbit_uncertainty": "8",
        "minimum_orbit_intersection": ".00544533",
        "jupiter_tisserand_invariant": "3.537",
        "epoch_osculation": "2456006.5",
        "eccentricity": ".7574419610763526",
        "semi_major_axis": "1.888005837916466",
        "inclination": "6.820485368600009",
        "ascending_node_longitude": "346.5737222378735",
        "orbital_period": "947.5528149674894",
        "perihelion_distance": ".4579509935214157",
        "perihelion_argument": "72.9264737309245",
        "aphelion_distance": "3.318060682311517",
        "perihelion_time": "2455940.721145177784",
        "mean_anomaly": "24.99110061406998",
        "mean_motion": ".3799260519450323",
        "equinox": "J2000",
        "orbit_class": {
            "orbit_class_type": "APO",
            "orbit_class_description": "Near-Earth asteroid orbits which cross the Earth’s orbit similar to that of 1862 Apollo",
            "orbit_class_range": "a (semi-major axis) > 1.0 AU; q (perihelion) < 1.017 AU"
        }
    },
    "is_sentry_object": false
}